{
  "type": "FeatureCollection",
  "features": [
    {
      "type": "Feature",
      "properties": {
        "norad_id": 30445,
        "name": "FENGYUN 1C DEB",
        "group": "fengyun-1c-debris",
        "lat": 9.62790027371419,
        "lon": -52.73773599617031,
        "alt_km": 661.708850003366,
        "timestamp": "2025-12-22T22:44:21.251970+00:00",
        "meta_object_name": "FENGYUN 1C DEB",
        "meta_object_id": "1999-025AFG",
        "meta_epoch": "2025-12-22T09:26:07.639872",
        "meta_mean_motion": 14.48799356,
        "meta_eccentricity": 0.01053164,
        "meta_inclination": 98.8371,
        "meta_ra_of_asc_node": 308.1945,
        "meta_arg_of_pericenter": 349.4001,
        "meta_mean_anomaly": 10.4971,
        "meta_ephemeris_type": 0,
        "meta_classification_type": "U",
        "meta_norad_cat_id": 30445,
        "meta_element_set_no": 999,
        "meta_rev_at_epoch": 99324,
        "meta_bstar": 0.00075914211,
        "meta_mean_motion_dot": 3.022e-05,
        "meta_mean_motion_ddot": 0,
        "tle_line1": "1 30445U 99025AFG 25356.39314398  .00003022  00000+0  75914-3 0  9997",
        "tle_line2": "2 30445  98.8371 308.1945 0105316 349.4001  10.4971 14.48799356993246"
      },
      "geometry": {
        "type": "Point",
        "coordinates": [
          -52.73773599617031,
          9.62790027371419
        ]
      }
    },
    {
      "type": "Feature",
      "properties": {
        "norad_id": 30446,
        "name": "FENGYUN 1C DEB",
        "group": "fengyun-1c-debris",
        "lat": 1.6373921956431432,
        "lon": 79.33920003682876,
        "alt_km": 735.383131279621,
        "timestamp": "2025-12-22T22:44:21.251981+00:00",
        "meta_object_name": "FENGYUN 1C DEB",
        "meta_object_id": "1999-025AFH",
        "meta_epoch": "2025-12-21T11:49:41.624832",
        "meta_mean_motion": 14.44813414,
        "meta_eccentricity": 0.0034231,
        "meta_inclination": 98.6132,
        "meta_ra_of_asc_node": 78.1134,
        "meta_arg_of_pericenter": 72.2363,
        "meta_mean_anomaly": 288.2558,
        "meta_ephemeris_type": 0,
        "meta_classification_type": "U",
        "meta_norad_cat_id": 30446,
        "meta_element_set_no": 999,
        "meta_rev_at_epoch": 98303,
        "meta_bstar": 0.0012128,
        "meta_mean_motion_dot": 4.202e-05,
        "meta_mean_motion_ddot": 0,
        "tle_line1": "1 30446U 99025AFH 25355.49284288  .00004202  00000+0  12128-2 0  9990",
        "tle_line2": "2 30446  98.6132  78.1134 0034231  72.2363 288.2558 14.44813414983033"
      },
      "geometry": {
        "type": "Point",
        "coordinates": [
          79.33920003682876,
          1.6373921956431432
        ]
      }
    },
    {
      "type": "Feature",
      "properties": {
        "norad_id": 30447,
        "name": "FENGYUN 1C DEB",
        "group": "fengyun-1c-debris",
        "lat": -18.4006679944448,
        "lon": 36.263302136715645,
        "alt_km": 749.0366232346732,
        "timestamp": "2025-12-22T22:44:21.251991+00:00",
        "meta_object_name": "FENGYUN 1C DEB",
        "meta_object_id": "1999-025AFJ",
        "meta_epoch": "2025-12-22T13:43:29.186112",
        "meta_mean_motion": 14.5678773,
        "meta_eccentricity": 0.00601618,
        "meta_inclination": 98.9705,
        "meta_ra_of_asc_node": 218.8715,
        "meta_arg_of_pericenter": 1.6286,
        "meta_mean_anomaly": 28.4158,
        "meta_ephemeris_type": 0,
        "meta_classification_type": "U",
        "meta_norad_cat_id": 30447,
        "meta_element_set_no": 999,
        "meta_rev_at_epoch": 98239,
        "meta_bstar": 0.002651413,
        "meta_mean_motion_dot": 0.00012126,
        "meta_mean_motion_ddot": 0,
        "tle_line1": "1 30447U 99025AFJ 25356.57186558  .00012126  00000+0  26514-2 0  9990",
        "tle_line2": "2 30447  98.9705 218.8715 0060161   1.6286  28.4158 14.56787730982394"
      },
      "geometry": {
        "type": "Point",
        "coordinates": [
          36.263302136715645,
          -18.4006679944448
        ]
      }
    },
    {
      "type": "Feature",
      "properties": {
        "norad_id": 30448,
        "name": "FENGYUN 1C DEB",
        "group": "fengyun-1c-debris",
        "lat": -29.58823061928831,
        "lon": -96.28618654595786,
        "alt_km": 787.840613141484,
        "timestamp": "2025-12-22T22:44:21.252002+00:00",
        "meta_object_name": "FENGYUN 1C DEB",
        "meta_object_id": "1999-025AFK",
        "meta_epoch": "2025-12-22T12:00:55.155168",
        "meta_mean_motion": 14.35224971,
        "meta_eccentricity": 0.0016914,
        "meta_inclination": 98.8305,
        "meta_ra_of_asc_node": 88.3208,
        "meta_arg_of_pericenter": 340.5425,
        "meta_mean_anomaly": 82.1056,
        "meta_ephemeris_type": 0,
        "meta_classification_type": "U",
        "meta_norad_cat_id": 30448,
        "meta_element_set_no": 999,
        "meta_rev_at_epoch": 97478,
        "meta_bstar": 0.0018827139,
        "meta_mean_motion_dot": 5.352e-05,
        "meta_mean_motion_ddot": 0,
        "tle_line1": "1 30448U 99025AFK 25356.50063837  .00005352  00000+0  18827-2 0  9999",
        "tle_line2": "2 30448  98.8305  88.3208 0016914 340.5425  82.1056 14.35224971974782"
      },
      "geometry": {
        "type": "Point",
        "coordinates": [
          -96.28618654595786,
          -29.58823061928831
        ]
      }
    },
    {
      "type": "Feature",
      "properties": {
        "norad_id": 30450,
        "name": "FENGYUN 1C DEB",
        "group": "fengyun-1c-debris",
        "lat": -52.6611206388479,
        "lon": -179.97318424924217,
        "alt_km": 619.809975191879,
        "timestamp": "2025-12-22T22:44:21.252013+00:00",
        "meta_object_name": "FENGYUN 1C DEB",
        "meta_object_id": "1999-025AFM",
        "meta_epoch": "2025-12-22T12:31:39.268992",
        "meta_mean_motion": 14.61844935,
        "meta_eccentricity": 0.01895604,
        "meta_inclination": 98.0795,
        "meta_ra_of_asc_node": 10.3421,
        "meta_arg_of_pericenter": 177.4992,
        "meta_mean_anomaly": 336.1868,
        "meta_ephemeris_type": 0,
        "meta_classification_type": "U",
        "meta_norad_cat_id": 30450,
        "meta_element_set_no": 999,
        "meta_rev_at_epoch": 99685,
        "meta_bstar": 0.00051723375,
        "meta_mean_motion_dot": 3.287e-05,
        "meta_mean_motion_ddot": 0,
        "tle_line1": "1 30450U 99025AFM 25356.52198228  .00003287  00000+0  51723-3 0  9995",
        "tle_line2": "2 30450  98.0795  10.3421 0189560 177.4992 336.1868 14.61844935996858"
      },
      "geometry": {
        "type": "Point",
        "coordinates": [
          -179.97318424924217,
          -52.6611206388479
        ]
      }
    },
    {
      "type": "Feature",
      "properties": {
        "norad_id": 30452,
        "name": "FENGYUN 1C DEB",
        "group": "fengyun-1c-debris",
        "lat": 17.90440406162809,
        "lon": -39.97536592059214,
        "alt_km": 660.5017587402344,
        "timestamp": "2025-12-22T22:44:21.252023+00:00",
        "meta_object_name": "FENGYUN 1C DEB",
        "meta_object_id": "1999-025AFP",
        "meta_epoch": "2025-12-22T09:08:18.621312",
        "meta_mean_motion": 14.64918809,
        "meta_eccentricity": 0.00495079,
        "meta_inclination": 99.3233,
        "meta_ra_of_asc_node": 136.3406,
        "meta_arg_of_pericenter": 224.376,
        "meta_mean_anomaly": 190.9553,
        "meta_ephemeris_type": 0,
        "meta_classification_type": "U",
        "meta_norad_cat_id": 30452,
        "meta_element_set_no": 999,
        "meta_rev_at_epoch": 98248,
        "meta_bstar": 0.0044649179,
        "meta_mean_motion_dot": 0.00024336,
        "meta_mean_motion_ddot": 0,
        "tle_line1": "1 30452U 99025AFP 25356.38077108  .00024336  00000+0  44649-2 0  9990",
        "tle_line2": "2 30452  99.3233 136.3406 0049507 224.3760 190.9553 14.64918809982480"
      },
      "geometry": {
        "type": "Point",
        "coordinates": [
          -39.97536592059214,
          17.90440406162809
        ]
      }
    },
    {
      "type": "Feature",
      "properties": {
        "norad_id": 30453,
        "name": "FENGYUN 1C DEB",
        "group": "fengyun-1c-debris",
        "lat": -18.14618389473834,
        "lon": -114.20946238023944,
        "alt_km": 730.5573991499723,
        "timestamp": "2025-12-22T22:44:21.252034+00:00",
        "meta_object_name": "FENGYUN 1C DEB",
        "meta_object_id": "1999-025AFQ",
        "meta_epoch": "2025-12-22T10:37:14.229984",
        "meta_mean_motion": 14.24823103,
        "meta_eccentricity": 0.0116146,
        "meta_inclination": 98.8123,
        "meta_ra_of_asc_node": 68.198,
        "meta_arg_of_pericenter": 198.4266,
        "meta_mean_anomaly": 291.2241,
        "meta_ephemeris_type": 0,
        "meta_classification_type": "U",
        "meta_norad_cat_id": 30453,
        "meta_element_set_no": 999,
        "meta_rev_at_epoch": 97372,
        "meta_bstar": 0.0014719805,
        "meta_mean_motion_dot": 3.64e-05,
        "meta_mean_motion_ddot": 0,
        "tle_line1": "1 30453U 99025AFQ 25356.44252581  .00003640  00000+0  14720-2 0  9990",
        "tle_line2": "2 30453  98.8123  68.1980 0116146 198.4266 291.2241 14.24823103973722"
      },
      "geometry": {
        "type": "Point",
        "coordinates": [
          -114.20946238023944,
          -18.14618389473834
        ]
      }
    }
  ]
}